{
  "norad_id": 63157,
  "name": "TJS-15",
  "history": [
    {
      "epoch": "2026-03-28T16:34:58.186272",
      "apogee_km": 35815.0050966042,
      "perigee_km": 35758.36087743363,
      "latitude_deg": -0.013720450302990848,
      "longitude_deg": -157.96868192008696,
      "semi_major_axis_km": 42164.81998701892,
      "eccentricity": 0.0006717,
      "inclination_deg": 0.2341,
      "raan_deg": 85.3007,
      "arg_perigee_deg": 276.9398,
      "mean_anomaly_deg": 166.9761,
      "mean_motion_rev_day": 1.00271471
    }
  ]
}